{
    "links": {
        "self": "http://www.neowsapp.com/rest/v1/neo/3438960?api_key=iIulBulltgU6a56xZRHN4H3l9WmuAYTsLGpBGhQ2"
    },
    "id": "3438960",
    "neo_reference_id": "3438960",
    "name": "(2008 VL14)",
    "designation": "2008 VL14",
    "nasa_jpl_url": "http://ssd.jpl.nasa.gov/sbdb.cgi?sstr=3438960",
    "absolute_magnitude_h": 21.1,
    "estimated_diameter": {
        "kilometers": {
            "estimated_diameter_min": 0.160160338,
            "estimated_diameter_max": 0.358129403
        },
        "meters": {
            "estimated_diameter_min": 160.1603379786,
            "estimated_diameter_max": 358.1294030194
        },
        "miles": {
            "estimated_diameter_min": 0.0995189894,
            "estimated_diameter_max": 0.2225312253
        },
        "feet": {
            "estimated_diameter_min": 525.4604432536,
            "estimated_diameter_max": 1174.9652706022
        }
    },
    "is_potentially_hazardous_asteroid": true,
    "close_approach_data": [
        {
            "close_approach_date": "1918-09-12",
            "close_approach_date_full": "1918-Sep-12 19:51",
            "epoch_date_close_approach": -1618978140000,
            "relative_velocity": {
                "kilometers_per_second": "10.8926358003",
                "kilometers_per_hour": "39213.4888809036",
                "miles_per_hour": "24365.7370215815"
            },
            "miss_distance": {
                "astronomical": "1.9976363716",
                "lunar": "777.0805485524",
                "kilometers": "298842146.225888492",
                "miles": "185691899.0169935096"
            },
            "orbiting_body": "Juptr"
        },
        {
            "close_approach_date": "2008-10-15",
            "close_approach_date_full": "2008-Oct-15 01:40",
            "epoch_date_close_approach": 1224034800000,
            "relative_velocity": {
                "kilometers_per_second": "21.5054014653",
                "kilometers_per_hour": "77419.4452750112",
                "miles_per_hour": "48105.4325376868"
            },
            "miss_distance": {
                "astronomical": "0.2105432387",
                "lunar": "81.9013198543",
                "kilometers": "31496820.052421569",
                "miles": "19571216.4512088922"
            },
            "orbiting_body": "Earth"
        },
        {
            "close_approach_date": "2054-10-22",
            "close_approach_date_full": "2054-Oct-22 22:30",
            "epoch_date_close_approach": 2676321000000,
            "relative_velocity": {
                "kilometers_per_second": "25.1981472967",
                "kilometers_per_hour": "90713.3302681812",
                "miles_per_hour": "56365.7356880263"
            },
            "miss_distance": {
                "astronomical": "0.0882263247",
                "lunar": "34.3200403083",
                "kilometers": "13198470.253048389",
                "miles": "8201149.1229062082"
            },
            "orbiting_body": "Earth"
        }
    ],
    "orbital_data": {
        "orbit_id": "18",
        "orbit_determination_date": "2017-04-06 09:02:13",
        "first_observation_date": "2008-11-09",
        "last_observation_date": "2008-12-01",
        "data_arc_in_days": 22,
        "observations_used": 55,
        "orbit_uncertainty": "8",
        "minimum_orbit_intersection": ".00433264",
        "jupiter_tisserand_invariant": "3.100",
        "epoch_osculation": "2454790.5",
        "eccentricity": ".8181212981469499",
        "semi_major_axis": "2.213450487624295",
        "inclination": "1.951982128285022",
        "ascending_node_longitude": "40.02023454287909",
        "orbital_period": "1202.826934347849",
        "perihelion_distance": ".4025795013051075",
        "perihelion_argument": "243.8015973480019",
        "aphelion_distance": "4.024321473943482",
        "perihelion_time": "2454709.557834396098",
        "mean_anomaly": "24.22557957866437",
        "mean_motion": ".2992949274079779",
        "equinox": "J2000",
        "orbit_class": {
            "orbit_class_type": "APO",
            "orbit_class_description": "Near-Earth asteroid orbits which cross the Earth’s orbit similar to that of 1862 Apollo",
            "orbit_class_range": "a (semi-major axis) > 1.0 AU; q (perihelion) < 1.017 AU"
        }
    },
    "is_sentry_object": false
}